ONEWEB-0603             
1 54667U 22166AB  23364.73085535 -.00000080  00000+0 -22447-3 0  9990
2 54667  87.9239  63.0285 0001361  93.4470 266.6820 13.21824064 52659
ONEWEB-0604             
1 54668U 22166AC  23365.17241435 -.00000241  00000+0 -61390-3 0  9992
2 54668  87.9231  62.9322 0001764 114.6427 245.4891 13.21827591 53143
ONEWEB-0606             
1 54670U 22166AE  23364.73401276  .00000096  00000+0  20052-3 0  9993
2 54670  87.9237  63.0344 0002035 103.1876 256.9485 13.21827348 52742
ONEWEB-0607             
1 54671U 22166AF  23364.70090862 -.00000028  00000+0 -10028-3 0  9995
2 54671  87.9231  63.0252 0001464  96.9788 263.1513 13.21823826 52717
ONEWEB-0608             
1 54672U 22166AG  23364.70719419 -.00000099  00000+0 -27068-3 0  9992
2 54672  87.9239  63.0348 0001298  79.9725 280.1555 13.21827219 52725
ONEWEB-0610             
1 54673U 22166AH  23364.68827920  .00000099  00000+0  20850-3 0  9997
2 54673  87.9242  63.0399 0001424  85.2659 274.8638 13.21824246 52621
ONEWEB-0611             
1 54674U 22166AJ  23364.68196694 -.00001407  00000+0 -34389-2 0  9992
2 54674  87.9241  63.0418 0002325 108.3479 251.7908 13.21833292 52615
